{
  "type": "FeatureCollection",
  "features": [
    {
      "type": "Feature",
      "properties": {
        "norad_id": 24876,
        "name": "GPS BIIR-2  (PRN 13)",
        "group": "gnss",
        "lat": 13.721993153266624,
        "lon": -83.78184475570497,
        "alt_km": 20250.84491976158,
        "timestamp": "2025-12-15T22:44:29.168671+00:00",
        "meta_object_name": "GPS BIIR-2  (PRN 13)",
        "meta_object_id": "1997-035A",
        "meta_epoch": "2025-12-14T17:26:52.239264",
        "meta_mean_motion": 2.00563675,
        "meta_eccentricity": 0.0096779,
        "meta_inclination": 55.8962,
        "meta_ra_of_asc_node": 105.7911,
        "meta_arg_of_pericenter": 56.9919,
        "meta_mean_anomaly": 303.9085,
        "meta_ephemeris_type": 0,
        "meta_classification_type": "U",
        "meta_norad_cat_id": 24876,
        "meta_element_set_no": 999,
        "meta_rev_at_epoch": 20825,
        "meta_bstar": 0,
        "meta_mean_motion_dot": -1e-07,
        "meta_mean_motion_ddot": 0,
        "tle_line1": "1 24876U 97035A   25348.72699351 -.00000010  00000+0  00000+0 0  9995",
        "tle_line2": "2 24876  55.8962 105.7911 0096779  56.9919 303.9085  2.00563675208254"
      },
      "geometry": {
        "type": "Point",
        "coordinates": [
          -83.78184475570497,
          13.721993153266624
        ]
      }
    },
    {
      "type": "Feature",
      "properties": {
        "norad_id": 26360,
        "name": "GPS BIIR-4  (PRN 20)",
        "group": "gnss",
        "lat": -52.08295273274499,
        "lon": -89.45801615704387,
        "alt_km": 20086.30050456063,
        "timestamp": "2025-12-15T22:44:29.168719+00:00",
        "meta_object_name": "GPS BIIR-4  (PRN 20)",
        "meta_object_id": "2000-025A",
        "meta_epoch": "2025-12-15T02:36:21.571200",
        "meta_mean_motion": 2.00567593,
        "meta_eccentricity": 0.00388813,
        "meta_inclination": 55.0466,
        "meta_ra_of_asc_node": 26.742,
        "meta_arg_of_pericenter": 242.2242,
        "meta_mean_anomaly": 126.1777,
        "meta_ephemeris_type": 0,
        "meta_classification_type": "U",
        "meta_norad_cat_id": 26360,
        "meta_element_set_no": 999,
        "meta_rev_at_epoch": 18758,
        "meta_bstar": 0,
        "meta_mean_motion_dot": -9.2e-07,
        "meta_mean_motion_ddot": 0,
        "tle_line1": "1 26360U 00025A   25349.10858300 -.00000092  00000+0  00000+0 0  9992",
        "tle_line2": "2 26360  55.0466  26.7420 0038881 242.2242 126.1777  2.00567593187589"
      },
      "geometry": {
        "type": "Point",
        "coordinates": [
          -89.45801615704387,
          -52.08295273274499
        ]
      }
    },
    {
      "type": "Feature",
      "properties": {
        "norad_id": 26407,
        "name": "GPS BIIR-5  (PRN 22)",
        "group": "gnss",
        "lat": 54.650583081047536,
        "lon": -39.873933270460846,
        "alt_km": 20470.73300439278,
        "timestamp": "2025-12-15T22:44:29.168737+00:00",
        "meta_object_name": "GPS BIIR-5  (PRN 22)",
        "meta_object_id": "2000-040A",
        "meta_epoch": "2025-12-14T13:17:49.888896",
        "meta_mean_motion": 2.00568039,
        "meta_eccentricity": 0.01259105,
        "meta_inclination": 54.8904,
        "meta_ra_of_asc_node": 222.4968,
        "meta_arg_of_pericenter": 301.8439,
        "meta_mean_anomaly": 225.766,
        "meta_ephemeris_type": 0,
        "meta_classification_type": "U",
        "meta_norad_cat_id": 26407,
        "meta_element_set_no": 999,
        "meta_rev_at_epoch": 18624,
        "meta_bstar": 0,
        "meta_mean_motion_dot": 3.9e-07,
        "meta_mean_motion_ddot": 0,
        "tle_line1": "1 26407U 00040A   25348.55404964  .00000039  00000+0  00000+0 0  9992",
        "tle_line2": "2 26407  54.8904 222.4968 0125910 301.8439 225.7660  2.00568039186242"
      },
      "geometry": {
        "type": "Point",
        "coordinates": [
          -39.873933270460846,
          54.650583081047536
        ]
      }
    },
    {
      "type": "Feature",
      "properties": {
        "norad_id": 27663,
        "name": "GPS BIIR-8  (PRN 16)",
        "group": "gnss",
        "lat": -38.659152482976076,
        "lon": 76.43213830238857,
        "alt_km": 20578.20618411713,
        "timestamp": "2025-12-15T22:44:29.168753+00:00",
        "meta_object_name": "GPS BIIR-8  (PRN 16)",
        "meta_object_id": "2003-005A",
        "meta_epoch": "2025-12-14T15:32:18.245760",
        "meta_mean_motion": 2.00570858,
        "meta_eccentricity": 0.01475389,
        "meta_inclination": 54.9229,
        "meta_ra_of_asc_node": 222.3024,
        "meta_arg_of_pericenter": 51.8264,
        "meta_mean_anomaly": 319.116,
        "meta_ephemeris_type": 0,
        "meta_classification_type": "U",
        "meta_norad_cat_id": 27663,
        "meta_element_set_no": 999,
        "meta_rev_at_epoch": 16761,
        "meta_bstar": 0,
        "meta_mean_motion_dot": 4.1e-07,
        "meta_mean_motion_ddot": 0,
        "tle_line1": "1 27663U 03005A   25348.64743340  .00000041  00000+0  00000+0 0  9998",
        "tle_line2": "2 27663  54.9229 222.3024 0147538  51.8264 319.1160  2.00570858167613"
      },
      "geometry": {
        "type": "Point",
        "coordinates": [
          76.43213830238857,
          -38.659152482976076
        ]
      }
    },
    {
      "type": "Feature",
      "properties": {
        "norad_id": 28190,
        "name": "GPS BIIR-11 (PRN 19)",
        "group": "gnss",
        "lat": 22.25731933885025,
        "lon": -60.27603854392153,
        "alt_km": 20399.509485072354,
        "timestamp": "2025-12-15T22:44:29.168766+00:00",
        "meta_object_name": "GPS BIIR-11 (PRN 19)",
        "meta_object_id": "2004-009A",
        "meta_epoch": "2025-12-14T15:49:47.343936",
        "meta_mean_motion": 2.00560762,
        "meta_eccentricity": 0.01083648,
        "meta_inclination": 54.9839,
        "meta_ra_of_asc_node": 283.1415,
        "meta_arg_of_pericenter": 167.6892,
        "meta_mean_anomaly": 10.6801,
        "meta_ephemeris_type": 0,
        "meta_classification_type": "U",
        "meta_norad_cat_id": 28190,
        "meta_element_set_no": 999,
        "meta_rev_at_epoch": 15924,
        "meta_bstar": 0,
        "meta_mean_motion_dot": -7.9e-07,
        "meta_mean_motion_ddot": 0,
        "tle_line1": "1 28190U 04009A   25348.65957574 -.00000079  00000+0  00000+0 0  9998",
        "tle_line2": "2 28190  54.9839 283.1415 0108364 167.6892  10.6801  2.00560762159240"
      },
      "geometry": {
        "type": "Point",
        "coordinates": [
          -60.27603854392153,
          22.25731933885025
        ]
      }
    },
    {
      "type": "Feature",
      "properties": {
        "norad_id": 28474,
        "name": "GPS BIIR-13 (PRN 02)",
        "group": "gnss",
        "lat": 55.22475453405462,
        "lon": 61.95912460361521,
        "alt_km": 20522.825209648883,
        "timestamp": "2025-12-15T22:44:29.168780+00:00",
        "meta_object_name": "GPS BIIR-13 (PRN 02)",
        "meta_object_id": "2004-045A",
        "meta_epoch": "2025-12-15T08:55:34.317408",
        "meta_mean_motion": 2.00569721,
        "meta_eccentricity": 0.01708177,
        "meta_inclination": 55.2393,
        "meta_ra_of_asc_node": 332.2998,
        "meta_arg_of_pericenter": 309.3676,
        "meta_mean_anomaly": 83.5283,
        "meta_ephemeris_type": 0,
        "meta_classification_type": "U",
        "meta_norad_cat_id": 28474,
        "meta_element_set_no": 999,
        "meta_rev_at_epoch": 15474,
        "meta_bstar": 0,
        "meta_mean_motion_dot": -9.1e-07,
        "meta_mean_motion_ddot": 0,
        "tle_line1": "1 28474U 04045A   25349.37192497 -.00000091  00000+0  00000+0 0  9992",
        "tle_line2": "2 28474  55.2393 332.2998 0170817 309.3676  83.5283  2.00569721154740"
      },
      "geometry": {
        "type": "Point",
        "coordinates": [
          61.95912460361521,
          55.22475453405462
        ]
      }
    },
    {
      "type": "Feature",
      "properties": {
        "norad_id": 28874,
        "name": "GPS BIIRM-1 (PRN 17)",
        "group": "gnss",
        "lat": 38.15249742655176,
        "lon": -46.140388710739416,
        "alt_km": 20321.626450525826,
        "timestamp": "2025-12-15T22:44:29.168793+00:00",
        "meta_object_name": "GPS BIIRM-1 (PRN 17)",
        "meta_object_id": "2005-038A",
        "meta_epoch": "2025-12-14T21:27:36.248256",
        "meta_mean_motion": 2.00578318,
        "meta_eccentricity": 0.01315823,
        "meta_inclination": 55.03,
        "meta_ra_of_asc_node": 280.6141,
        "meta_arg_of_pericenter": 293.5769,
        "meta_mean_anomaly": 73.3073,
        "meta_ephemeris_type": 0,
        "meta_classification_type": "U",
        "meta_norad_cat_id": 28874,
        "meta_element_set_no": 999,
        "meta_rev_at_epoch": 14814,
        "meta_bstar": 0,
        "meta_mean_motion_dot": -7.5e-07,
        "meta_mean_motion_ddot": 0,
        "tle_line1": "1 28874U 05038A   25348.89416954 -.00000075  00000+0  00000+0 0  9994",
        "tle_line2": "2 28874  55.0300 280.6141 0131582 293.5769  73.3073  2.00578318148142"
      },
      "geometry": {
        "type": "Point",
        "coordinates": [
          -46.140388710739416,
          38.15249742655176
        ]
      }
    }
  ]
}